{"fetched_at":"2026-03-30T13:17:50Z","count":15418,"tles":[{"name":"KUIPER-00083","line1":"1 64829U 25151P   26087.80890602  .00004813  00000+0  65968-3 0  9991","line2":"2 64829  51.8991 211.0458 0000483  96.8456 263.2561 14.79948446 39393","category":"Other"}]}