{
  "norad_id": 64829,
  "name": "KUIPER-00083",
  "history": [
    {
      "epoch": "2026-03-28T19:24:49.480128Z",
      "apogee_km": 629.82582917121,
      "perigee_km": 629.1479116379869,
      "latitude_deg": -2.6470689152787932e-05,
      "longitude_deg": 93.6155821103281,
      "height_km": 630.2733236579433,
      "semi_major_axis_km": 7007.623870404598,
      "eccentricity": 4.837e-05,
      "inclination_deg": 51.8991,
      "raan_deg": 211.0458,
      "arg_perigee_deg": 96.8456,
      "mean_anomaly_deg": 263.2561,
      "mean_motion_rev_day": 14.79948446
    }
  ]
}